ORBCOMM FM103           
1 40091U 14040F   25042.57746044  .00001200  00000+0  29654-3 0  9994
2 40091  47.0041 250.8699 0001415  68.6119 291.4918 14.57793284545775
ORBCOMM FM114           
1 41179U 15081A   25042.60339809  .00001444  00000+0  34895-3 0  9992
2 41179  47.0020 159.8722 0001902 165.8885 194.2054 14.57852560486145
ORBCOMM FM119           
1 41180U 15081B   25042.51643253  .00001357  00000+0  33056-3 0  9996
2 41180  47.0008  69.5473 0001699 241.7471 118.3243 14.57771439487380
ORBCOMM FM105           
1 41181U 15081C   25042.52947744  .00000590  00000+0  21212-3 0  9999
2 41181  47.0019  62.2936 0000790 141.2989 218.7948 14.45023690482575
ORBCOMM FM110           
1 41182U 15081D   25042.44174804  .00001824  00000+0  43123-3 0  9996
2 41182  47.0015 160.0020 0002893 273.4843  86.5712 14.57821687485990
ORBCOMM FM118           
1 41183U 15081E   25042.63032497  .00001693  00000+0  40357-3 0  9999
2 41183  47.0040 159.5372 0003379 271.6454  88.4044 14.57744643486121
ORBCOMM FM112           
1 41184U 15081F   25042.42449826  .00001725  00000+0  41031-3 0  9991
2 41184  46.9993  69.1514 0001027 234.1543 125.9247 14.57773822487317
ORBCOMM FM113           
1 41185U 15081G   25042.46976655  .00001475  00000+0  35624-3 0  9994
2 41185  47.0011  69.2424 0001343 238.1804 121.8950 14.57768244487304
